IRIDIUM 36 [-]          
1 24967U 97056C   24013.53057780  .00000708  00000+0  23425-3 0  9993
2 24967  86.3954  31.6044 0002053  92.3492 267.7940 14.36579667377446
IRIDIUM 39 [-]          
1 25042U 97069D   24013.57080569  .00001200  00000+0  31990-3 0  9991
2 25042  86.3895  74.1465 0016491 239.9703 119.9865 14.47620021373600
IRIDIUM 38 [-]          
1 25043U 97069E   24013.58711409  .00000816  00000+0  26860-3 0  9999
2 25043  86.3951  92.0560 0003390  60.9265 299.2271 14.37050501371169
IRIDIUM 42 [-]          
1 25077U 97077A   24013.59550316  .00000782  00000+0  26595-3 0  9991
2 25077  86.3960  97.5897 0002354  77.7495 282.3965 14.35346830366493
IRIDIUM 44 [-]          
1 25078U 97077B   24013.55208019  .00000800  00000+0  25209-3 0  9990
2 25078  86.3938  80.9217 0000950  31.4241 328.7014 14.39158670368799
IRIDIUM 45 [-]          
1 25104U 97082A   24013.25411451  .00016490  00000+0  10081-2 0  9992
2 25104  86.3766 295.1834 0175998  84.6994 277.4290 14.98023583373479
IRIDIUM 24 [-]          
1 25105U 97082B   24013.34571306  .00001019  00000+0  31122-3 0  9990
2 25105  86.3921 300.8676 0011804   8.4194 351.7201 14.40929028368188
IRIDIUM 51 [-]          
1 25262U 98018A   24013.27320490  .00024746  00000+0  12901-2 0  9997
2 25262  86.3912 305.4492 0160927  36.4540 324.7523 15.05225125367912
